     2.12           N                   J                   RINEX VERSION / TYPE
SPO                 QSS                 20211113 001749 UTC PGM / RUN BY / DATE 
comment                                                     COMMENT             
QZSA   1.2107E-08 -2.9802E-08 -4.7684E-07 -7.7486E-07       IONOSPHERIC CORR    
QZSB   9.6256E+04 -6.5536E+04 -1.7039E+06 -5.0463E+06       IONOSPHERIC CORR    
QZUT  3.7252902985E-09 0.000000000E+00  94208 2184          TIME SYSTEM CORR    
    18                                                      LEAP SECONDS        
                                                            END OF HEADER       
J 1 21 11 12  0  0  0.0 1.392313279212E-04-1.409716787748E-11 0.000000000000E+00
     2.900000000000E+01-7.283750000000E+02 2.925836158534E-09 2.565207927687E+00
    -2.154521644115E-05 7.516079302877E-02 1.050345599651E-05 6.493136013000E+03
     4.320000000000E+05 2.900138497353E-06 1.571674166880E+00 3.408640623093E-07
     7.342300127472E-01-1.362187500000E+02-1.565591741180E+00-2.857261873569E-09
     9.411106296067E-10 2.000000000000E+00 2.183000000000E+03 0.000000000000E+00
     2.800000000000E+00 0.000000000000E+00-6.053596735001E-09 7.970000000000E+02
     4.284060000000E+05 2.000000000000E+00                                      
J 2 21 11 12  0  0  0.0-8.149072527885E-08-1.136868377216E-13 0.000000000000E+00
     2.900000000000E+01 3.709375000000E+01 3.028340428249E-09 2.174702128844E-01
     1.328065991402E-06 7.638575788587E-02 2.676621079445E-06 6.492846641500E+03
     4.320000000000E+05-2.831220626831E-07-2.428648455848E+00-1.788139343262E-07
     7.357355412413E-01 9.493750000000E+01-1.585023354333E+00-3.428357090548E-09
    -4.639478967207E-10 2.000000000000E+00 2.183000000000E+03 0.000000000000E+00
     2.800000000000E+00 0.000000000000E+00 9.313225746155E-10 7.970000000000E+02
     4.284060000000E+05 2.000000000000E+00                                      
J 3 21 11 12  0  0  0.0-6.020534783602E-06-1.023181539495E-12 0.000000000000E+00
     2.900000000000E+01 2.836875000000E+02-4.064455015151E-10-1.485550233873E+00
     8.802860975266E-06 7.480653410312E-02 5.114823579788E-06 6.493619239800E+03
     4.320000000000E+05 4.271045327187E-06-7.226046328691E-01-7.916241884232E-07
     7.123197248272E-01 3.006250000000E+01-1.565146022226E+00 4.157316026042E-10
     7.071723137082E-11 2.000000000000E+00 2.183000000000E+03 0.000000000000E+00
     2.800000000000E+00 0.000000000000E+00 0.000000000000E+00 7.970000000000E+02
     4.284060000000E+05 2.000000000000E+00                                      
J 7 21 11 12  0  0  0.0 1.361127942801E-06-1.136868377216E-13 0.000000000000E+00
     2.900000000000E+01 9.812500000000E+01 0.000000000000E+00-1.003158200834E+00
     3.391876816750E-06 1.673959195614E-04 9.207054972649E-06 6.493395752000E+03
     4.320000000000E+05 3.259629011154E-07 2.222423866863E+00 2.199783921242E-06
     8.824117045608E-04-2.785312500000E+02 1.084142024878E+00 1.013256491914E-09
     0.000000000000E+00 2.000000000000E+00 2.183000000000E+03 0.000000000000E+00
     2.800000000000E+00 0.000000000000E+00-6.053596735001E-09 7.970000000000E+02
     4.284060000000E+05 2.000000000000E+00                                      
J 1 21 11 12  1  0  0.0 1.391805708408E-04-1.409716787748E-11 0.000000000000E+00
     3.300000000000E+01-7.228750000000E+02 2.377241878809E-09 2.827764468243E+00
    -2.179481089115E-05 7.516072236467E-02 1.054257154465E-05 6.493135324500E+03
     4.356000000000E+05 7.785856723785E-07 1.571676001380E+00 5.140900611877E-07
     7.342336978378E-01-1.490937500000E+02-1.565599627772E+00-2.277237713234E-09
     3.778728827795E-10 2.000000000000E+00 2.183000000000E+03 0.000000000000E+00
     2.800000000000E+00 0.000000000000E+00-6.053596735001E-09 8.010000000000E+02
     4.320060000000E+05 2.000000000000E+00                                      
J 2 21 11 12  1  0  0.0-8.149072527885E-08-1.136868377216E-13 0.000000000000E+00
     3.300000000000E+01 4.168750000000E+01 2.971195190777E-09 4.800668037493E-01
     1.391395926476E-06 7.638517196756E-02 2.557411789894E-06 6.492845010800E+03
     4.356000000000E+05-5.885958671570E-07-2.428662606655E+00-2.644956111908E-07
     7.357343869990E-01 1.003125000000E+02-1.585024951840E+00-3.304066199048E-09
    -3.375140588153E-10 2.000000000000E+00 2.183000000000E+03 0.000000000000E+00
     2.800000000000E+00 0.000000000000E+00 9.313225746155E-10 8.010000000000E+02
     4.320060000000E+05 2.000000000000E+00                                      
J 3 21 11 12  1  0  0.0-6.023328751326E-06-1.023181539495E-12 0.000000000000E+00
     3.300000000000E+01 2.927187500000E+02 3.150131215609E-10-1.223121980991E+00
     9.259209036827E-06 7.480612362269E-02 6.573274731636E-06 6.493607681300E+03
     4.356000000000E+05 2.667307853699E-06-7.226055223233E-01 2.074986696243E-06
     7.123129207952E-01-1.775000000000E+01-1.565084525538E+00-4.371610666560E-10
    -3.132273328900E-10 2.000000000000E+00 2.183000000000E+03 0.000000000000E+00
     2.800000000000E+00 0.000000000000E+00 0.000000000000E+00 8.010000000000E+02
     4.320060000000E+05 2.000000000000E+00                                      
J 7 21 11 12  1  0  0.0 1.362059265375E-06-1.136868377216E-13 0.000000000000E+00
     3.300000000000E+01 7.343750000000E+01 0.000000000000E+00-7.669011164412E-01
     2.613291144371E-06 1.638144021854E-04 1.092068850994E-05 6.493382070500E+03
     4.356000000000E+05-6.910413503647E-07 2.222442971110E+00 1.482665538788E-06
     8.836961466344E-04-3.326875000000E+02 1.110386443138E+00 1.098974348121E-09
     0.000000000000E+00 2.000000000000E+00 2.183000000000E+03 0.000000000000E+00
     2.800000000000E+00 0.000000000000E+00-6.053596735001E-09 8.010000000000E+02
     4.320060000000E+05 2.000000000000E+00                                      
J 1 21 11 12  2  0  0.0 1.391298137605E-04-1.409716787748E-11 0.000000000000E+00
     3.700000000000E+01-7.016562500000E+02 2.042942239602E-09 3.090307195927E+00
    -2.145767211914E-05 7.515452243388E-02 1.189298927784E-05 6.493148393600E+03
     4.392000000000E+05 2.458691596985E-07 1.571671696012E+00 5.029141902924E-08
     7.342346633637E-01-2.282812500000E+02-1.565590167080E+00-2.169733235241E-09
     1.528635102359E-10 2.000000000000E+00 2.183000000000E+03 0.000000000000E+00
     2.800000000000E+00 0.000000000000E+00-6.053596735001E-09 8.050000000000E+02
     4.356060000000E+05 2.000000000000E+00                                      
J 2 21 11 12  2  0  0.0-8.195638656616E-08-1.136868377216E-13 0.000000000000E+00
     3.700000000000E+01 4.643750000000E+01 2.543677382945E-09 7.426590643767E-01
     1.337379217148E-06 7.638532051351E-02 2.317130565643E-06 6.492845909100E+03
     4.392000000000E+05-9.424984455109E-07-2.428680669304E+00-1.572072505951E-06
     7.357365257852E-01 1.051875000000E+02-1.585019439565E+00-2.635466920633E-09
    -3.928735076157E-12 2.000000000000E+00 2.183000000000E+03 0.000000000000E+00
     2.800000000000E+00 0.000000000000E+00 9.313225746155E-10 8.050000000000E+02
     4.356060000000E+05 2.000000000000E+00                                      
J 3 21 11 12  2  0  0.0-6.026588380337E-06-1.023181539495E-12 0.000000000000E+00
     3.700000000000E+01 2.745312500000E+02 1.423630728506E-09-9.607027469999E-01
     9.041279554367E-06 7.480387669057E-02 8.242204785347E-06 6.493591508900E+03
     4.392000000000E+05 0.000000000000E+00-7.226156618085E-01 1.832842826843E-06
     7.123029144355E-01-7.068750000000E+01-1.565005421169E+00-1.781502778170E-09
    -2.889406069646E-10 2.000000000000E+00 2.183000000000E+03 0.000000000000E+00
     2.800000000000E+00 0.000000000000E+00 0.000000000000E+00 8.050000000000E+02
     4.356060000000E+05 2.000000000000E+00                                      
J 7 21 11 12  2  0  0.0 1.362059265375E-06-1.136868377216E-13 0.000000000000E+00
     3.700000000000E+01 3.609375000000E+01 0.000000000000E+00-5.210330450148E-01
     1.432374119759E-06 1.603028504178E-04 1.180917024612E-05 6.493371297800E+03
     4.392000000000E+05-8.251518011093E-07 2.222578064280E+00 7.823109626770E-07
     8.845695087278E-04-3.607812500000E+02 1.126905749199E+00 1.166477159884E-09
     0.000000000000E+00 2.000000000000E+00 2.183000000000E+03 0.000000000000E+00
     2.800000000000E+00 0.000000000000E+00-6.053596735001E-09 8.050000000000E+02
     4.356060000000E+05 2.000000000000E+00                                      
J 1 21 11 12  3  0  0.0 1.390795223415E-04-1.409716787748E-11 0.000000000000E+00
     4.100000000000E+01-7.163125000000E+02 1.782217093638E-09-2.930318826261E+00
    -2.178363502026E-05 7.514590281062E-02 1.414492726326E-05 6.493166740400E+03
     4.428000000000E+05 2.980232238770E-07 1.571664994384E+00-1.452863216400E-07
     7.342350510370E-01-3.355312500000E+02-1.565598613969E+00-2.180090809533E-09
     8.036049019412E-11 2.000000000000E+00 2.183000000000E+03 0.000000000000E+00
     2.800000000000E+00 0.000000000000E+00-6.053596735001E-09 8.090000000000E+02
     4.392060000000E+05 2.000000000000E+00                                      
J 2 21 11 12  3  0  0.0-8.288770914078E-08-1.136868377216E-13 0.000000000000E+00
     4.100000000000E+01 5.200000000000E+01 2.017226882739E-09 1.005246996230E+00
     1.365318894386E-06 7.638558954932E-02 1.894310116768E-06 6.492847265200E+03
     4.428000000000E+05 7.506459951401E-07-2.428694577266E+00-2.706423401833E-06
     7.357408004318E-01 1.101875000000E+02-1.585012768658E+00-1.833290649629E-09
     3.285851154604E-11 2.000000000000E+00 2.183000000000E+03 0.000000000000E+00
     2.800000000000E+00 0.000000000000E+00 9.313225746155E-10 8.090000000000E+02
     4.392060000000E+05 2.000000000000E+00                                      
J 3 21 11 12  3  0  0.0-6.031710654497E-06-1.023181539495E-12 0.000000000000E+00
     4.100000000000E+01 2.395937500000E+02 2.372598828265E-09-6.982600536540E-01
     8.299946784973E-06 7.480059296358E-02 9.164214134216E-06 6.493576320600E+03
